$$SOE
2459580.500000000, A.D. 2022-Jan-01 00:00:00.0000, 3.372220628168842E+08, 1.331506836794404E+08, 8.147967515335664E+06,
2459587.500000000, A.D. 2022-Jan-08 00:00:00.0000, 3.334880447532821E+08, 1.450554124171833E+08, 1.093753234545385E+07,
2459594.500000000, A.D. 2022-Jan-15 00:00:00.0000, 3.294179581951247E+08, 1.568138699140020E+08, 1.371607320639640E+07,
2459601.500000000, A.D. 2022-Jan-22 00:00:00.0000, 3.250193353209588E+08, 1.684158414513276E+08, 1.648093202280375E+07,
2459608.500000000, A.D. 2022-Jan-29 00:00:00.0000, 3.203000992995189E+08, 1.798515920117582E+08, 1.922952986125109E+07,
2459615.500000000, A.D. 2022-Feb-05 00:00:00.0000, 3.152685244068938E+08, 1.911118787824065E+08, 2.195937220339196E+07,
2459622.500000000, A.D. 2022-Feb-12 00:00:00.0000, 3.099331982596966E+08, 2.021879593778443E+08, 2.466805324663880E+07,
2459629.500000000, A.D. 2022-Feb-19 00:00:00.0000, 3.043029851463242E+08, 2.130715982590155E+08, 2.735325955157155E+07,
2459636.500000000, A.D. 2022-Feb-26 00:00:00.0000, 2.983869894288529E+08, 2.237550707635322E+08, 3.001277310935137E+07,
2459643.500000000, A.D. 2022-Mar-05 00:00:00.0000, 2.921945194332697E+08, 2.342311642924664E+08, 3.264447378297214E+07,
2459650.500000000, A.D. 2022-Mar-12 00:00:00.0000, 2.857350522794191E+08, 2.444931767686011E+08, 3.524634112126289E+07,
2459657.500000000, A.D. 2022-Mar-19 00:00:00.0000, 2.790181999212944E+08, 2.545349125894074E+08, 3.781645557096162E+07,
2459664.500000000, A.D. 2022-Mar-26 00:00:00.0000, 2.720536765895587E+08, 2.643506762744738E+08, 4.035299911793458E+07,
2459671.500000000, A.D. 2022-Apr-02 00:00:00.0000, 2.648512678440548E+08, 2.739352639638590E+08, 4.285425538362327E+07,
2459678.500000000, A.D. 2022-Apr-09 00:00:00.0000, 2.574208016202707E+08, 2.832839529877095E+08, 4.531860919154307E+07,
2459685.500000000, A.D. 2022-Apr-16 00:00:00.0000, 2.497721217127797E+08, 2.923924903754016E+08, 4.774454566540146E+07,
2459692.500000000, A.D. 2022-Apr-23 00:00:00.0000, 2.419150624850011E+08, 3.012570815953866E+08, 5.013064910453367E+07,
2459699.500000000, A.D. 2022-Apr-30 00:00:00.0000, 2.338594229651141E+08, 3.098743774835445E+08, 5.247560166584308E+07,
2459706.500000000, A.D. 2022-May-07 00:00:00.0000, 2.256149434057191E+08, 3.182414575880458E+08, 5.477818145275004E+07,
2459713.500000000, A.D. 2022-May-14 00:00:00.0000, 2.171912856950979E+08, 3.263558131551051E+08, 5.703726017258769E+07,
2459720.500000000, A.D. 2022-May-21 00:00:00.0000, 2.085980155651693E+08, 3.342153306864779E+08, 5.925180064901561E+07,
2459727.500000000, A.D. 2022-May-28 00:00:00.0000, 1.998445860784797E+08, 3.418182752723646E+08, 6.142085419218218E+07,
2459734.500000000, A.D. 2022-Jun-04 00:00:00.0000, 1.909403226211636E+08, 3.491632735373847E+08, 6.354355781110217E+07,
2459741.500000000, A.D. 2022-Jun-11 00:00:00.0000, 1.818944094862850E+08, 3.562492963391383E+08, 6.561913128843199E+07,
2459748.500000000, A.D. 2022-Jun-18 00:00:00.0000, 1.727158780175612E+08, 3.630756413567797E+08, 6.764687414614676E+07,
2459755.500000000, A.D. 2022-Jun-25 00:00:00.0000, 1.634135962676328E+08, 3.696419156476559E+08, 6.962616252533793E+07,
2459762.500000000, A.D. 2022-Jul-02 00:00:00.0000, 1.539962602248235E+08, 3.759480182050635E+08, 7.155644598879521E+07,
2459769.500000000, A.D. 2022-Jul-09 00:00:00.0000, 1.444723869156778E+08, 3.819941227812687E+08, 7.343724424919957E+07,
2459776.500000000, A.D. 2022-Jul-16 00:00:00.0000, 1.348503092447365E+08, 3.877806621340765E+08, 7.526814393830593E+07,
2459783.500000000, A.D. 2022-Jul-23 00:00:00.0000, 1.251381702893439E+08, 3.933083138350400E+08, 7.704879564333087E+07,
2459790.500000000, A.D. 2022-Jul-30 00:00:00.0000, 1.153439170455577E+08, 3.985779843337160E+08, 7.877891094406492E+07,
2459797.500000000, A.D. 2022-Aug-06 00:00:00.0000, 1.054752971379527E+08, 4.035907919707771E+08, 8.045825918839243E+07,
2459804.500000000, A.D. 2022-Aug-13 00:00:00.0000, 9.553985758858083E+07, 4.083480517285942E+08, 8.208666431892717E+07,
2459811.500000000, A.D. 2022-Aug-20 00:00:00.0000, 8.554494399350770E+07, 4.128512612403089E+08, 8.366400186343086E+07,
2459818.500000000, A.D. 2022-Aug-27 00:00:00.0000, 7.549770009535539E+07, 4.171020873512527E+08, 8.519019603288877E+07,
2459825.500000000, A.D. 2022-Sep-03 00:00:00.0000, 6.540506792548515E+07, 4.211023531379897E+08, 8.666521690418133E+07,
2459832.500000000, A.D. 2022-Sep-10 00:00:00.0000, 5.527378853689051E+07, 4.248540254185309E+08, 8.808907768811601E+07,
2459839.500000000, A.D. 2022-Sep-17 00:00:00.0000, 4.511040329239432E+07, 4.283592027552306E+08, 8.946183208506191E+07,
2459846.500000000, A.D. 2022-Sep-24 00:00:00.0000, 3.492125570718699E+07, 4.316201038972515E+08, 9.078357172177267E+07,
2459853.500000000, A.D. 2022-Oct-01 00:00:00.0000, 2.471249402746011E+07, 4.346390566339160E+08, 9.205442364749789E+07,
2459860.500000000, A.D. 2022-Oct-08 00:00:00.0000, 1.449007489760535E+07, 4.374184875720111E+08, 9.327454789579803E+07,
2459867.500000000, A.D. 2022-Oct-15 00:00:00.0000, 4.259767133899138E+06, 4.399609140254176E+08, 9.444413529600504E+07,
2459874.500000000, A.D. 2022-Oct-22 00:00:00.0000, -5.972846622386931E+06, 4.422689363177828E+08, 9.556340559574872E+07,
2459881.500000000, A.D. 2022-Oct-29 00:00:00.0000, -1.620236791935632E+07, 4.443452278861291E+08, 9.663260545160240E+07,
2459888.500000000, A.D. 2022-Nov-05 00:00:00.0000, -2.642357811845897E+07, 4.461925259116303E+08, 9.765200631861544E+07,
2459895.500000000, A.D. 2022-Nov-12 00:00:00.0000, -3.663143362777025E+07, 4.478136237285118E+08, 9.862190252106521E+07,
2459902.500000000, A.D. 2022-Nov-19 00:00:00.0000, -4.682106149609426E+07, 4.492113640372284E+08, 9.954260948986351E+07,
2459909.500000000, A.D. 2022-Nov-26 00:00:00.0000, -5.698775513560027E+07, 4.503886325045654E+08, 1.004144621074417E+08,
2459916.500000000, A.D. 2022-Dec-03 00:00:00.0000, -6.712697003390563E+07, 4.513483517193289E+08, 1.012378131412627E+08,
2459923.500000000, A.D. 2022-Dec-10 00:00:00.0000, -7.723431943408743E+07, 4.520934755024594E+08, 1.020130317604731E+08,
2459930.500000000, A.D. 2022-Dec-17 00:00:00.0000, -8.730556997924776E+07, 4.526269835266031E+08, 1.027405021283463E+08,
2459937.500000000, A.D. 2022-Dec-24 00:00:00.0000, -9.733663723122604E+07, 4.529518761592808E+08, 1.034206220518795E+08,
2459944.500000000, A.D. 2022-Dec-31 00:00:00.0000, -1.073235807228490E+08, 4.530711696172680E+08, 1.040538016611755E+08,
2459951.500000000, A.D. 2023-Jan-07 00:00:00.0000, -1.172625984364561E+08, 4.529878923754702E+08, 1.046404621827759E+08,
2459958.500000000, A.D. 2023-Jan-14 00:00:00.0000, -1.271500226889282E+08, 4.527050833092521E+08, 1.051810350249112E+08,
2459965.500000000, A.D. 2023-Jan-21 00:00:00.0000, -1.369823180784250E+08, 4.522257883784385E+08, 1.056759609708523E+08,
2459972.500000000, A.D. 2023-Jan-28 00:00:00.0000, -1.467560778359453E+08, 4.515530556376865E+08, 1.061256891243453E+08,
2459979.500000000, A.D. 2023-Feb-04 00:00:00.0000, -1.564680188009700E+08, 4.506899315856328E+08, 1.065306758715020E+08,
2459986.500000000, A.D. 2023-Feb-11 00:00:00.0000, -1.661149768235712E+08, 4.496394586449980E+08, 1.068913840057084E+08,
2459993.500000000, A.D. 2023-Feb-18 00:00:00.0000, -1.756939026618398E+08, 4.484046729352697E+08, 1.072082819513421E+08,
2460000.500000000, A.D. 2023-Feb-25 00:00:00.0000, -1.852018581167785E+08, 4.469886021615439E+08, 1.074818430463407E+08,
2460007.500000000, A.D. 2023-Mar-04 00:00:00.0000, -1.946360123064820E+08, 4.453942636246351E+08, 1.077125448732946E+08,
2460014.500000000, A.D. 2023-Mar-11 00:00:00.0000, -2.039936380540570E+08, 4.436246623399907E+08, 1.079008686340714E+08,
2460021.500000000, A.D. 2023-Mar-18 00:00:00.0000, -2.132721083444265E+08, 4.416827892036093E+08, 1.080472985572645E+08,
2460028.500000000, A.D. 2023-Mar-25 00:00:00.0000, -2.224688926480938E+08, 4.395716191459458E+08, 1.081523213136351E+08,
2460035.500000000, A.D. 2023-Apr-01 00:00:00.0000, -2.315815526880759E+08, 4.372941096558264E+08, 1.082164254304296E+08,
2460042.500000000, A.D. 2023-Apr-08 00:00:00.0000, -2.406077382657864E+08, 4.348532008886749E+08, 1.082401008588774E+08,
2460049.500000000, A.D. 2023-Apr-15 00:00:00.0000, -2.495451854823455E+08, 4.322518162429879E+08, 1.082238388165750E+08,
2460056.500000000, A.D. 2023-Apr-22 00:00:00.0000, -2.583917155443432E+08, 4.294928603417348E+08, 1.081681314865588E+08,
2460063.500000000, A.D. 2023-Apr-29 00:00:00.0000, -2.671452314192207E+08, 4.265792166597944E+08, 1.080734715037950E+08,
2460070.500000000, A.D. 2023-May-06 00:00:00.0000, -2.758037141020063E+08, 4.235137465705624E+08, 1.079403515347967E+08,
2460077.500000000, A.D. 2023-May-13 00:00:00.0000, -2.843652194699602E+08, 4.202992889117959E+08, 1.077692639657163E+08,
2460084.500000000, A.D. 2023-May-20 00:00:00.0000, -2.928278754896879E+08, 4.169386595730258E+08, 1.075607006357579E+08,
2460091.500000000, A.D. 2023-May-27 00:00:00.0000, -3.011898795815613E+08, 4.134346510686722E+08, 1.073151525940657E+08,
2460098.500000000, A.D. 2023-Jun-03 00:00:00.0000, -3.094494960818764E+08, 4.097900321166003E+08, 1.070331098751336E+08,
2460105.500000000, A.D. 2023-Jun-10 00:00:00.0000, -3.176050537768203E+08, 4.060075472022147E+08, 1.067150612875838E+08,
2460112.500000000, A.D. 2023-Jun-17 00:00:00.0000, -3.256549434170066E+08, 4.020899160620258E+08, 1.063614942014372E+08,
2460119.500000000, A.D. 2023-Jun-24 00:00:00.0000, -3.335976148904199E+08, 3.980398331365621E+08, 1.059728943073706E+08,
2460126.500000000, A.D. 2023-Jul-01 00:00:00.0000, -3.414315737986636E+08, 3.938599678153236E+08, 1.055497453908944E+08,
2460133.500000000, A.D. 2023-Jul-08 00:00:00.0000, -3.491553791089815E+08, 3.895529662913237E+08, 1.050925293409741E+08,
2460140.500000000, A.D. 2023-Jul-15 00:00:00.0000, -3.567676431566487E+08, 3.851214521918736E+08, 1.046017262778860E+08,
2460147.500000000, A.D. 2023-Jul-22 00:00:00.0000, -3.642670304729173E+08, 3.805680249465271E+08, 1.040778143913106E+08,
$$EOE